satname,norad_id,inclination_deg,eccentricity,mean_motion_rev_per_day,perigee_km,apogee_km,l1,l2
STARLINK-1560,46036,53.0951,0.0001406,15.1612892,516.5838482797553,518.5229164152706,1 46036U 20055K   26066.66668981  .01015357  00000+0  48356-1 0  9999,2 46036  53.0951 135.5337 0001406  78.0562 326.0624 15.16128920  5799
STARLINK-1567,46038,53.0846,0.0001297,15.14002896,523.1121355785617,524.9025518213184,1 46038U 20055M   26066.66668981  .01062100  00000+0  53514-1 0  9991,2 46038  53.0846 135.5868 0001297  67.0855 248.5876 15.14002896  5792
STARLINK-1569,46039,53.0912,0.0001163,15.15576619,518.4263855190575,520.0307127457845,1 46039U 20055N   26066.66668981  .00119089  00000+0  61152-2 0  9998,2 46039  53.0912 135.5007 0001163  99.4181 222.9557 15.15576619  5797
STARLINK-1582,46043,53.086,0.0001771,15.14062517,522.6038089958902,525.0484843424401,1 46043U 20055S   26066.66668981  .01459167  00000+0  72435-1 0  9993,2 46043  53.0860 135.5877 0001771  96.5214 137.1974 15.14062517  5795
STARLINK-1591,46045,53.0931,0.0001873,15.15989776,516.6836779490022,519.2669616239937,1 46045U 20055U   26066.66668981  .00125913  00000+0  63833-2 0  9996,2 46045  53.0931 135.4452 0001873  75.8874  97.0120 15.15989776  5758
STARLINK-1524,46047,53.1557,0.0001628,15.29366136,476.58983697169697,478.8220994421454,1 46047U 20055W   26066.56277876  .00017210  00000+0  60715-3 0  9993,2 46047  53.1557 123.7023 0001628  88.6266 271.4921 15.29366136308740
STARLINK-1527,46048,53.1592,0.0001271,15.30207669,474.32111312563666,476.0632294009729,1 46048U 20055X   26066.66668981  .00041317  00000+0  13990-2 0  9993,2 46048  53.1592 123.3357 0001271  81.1848  88.0730 15.30207669  5699
STARLINK-1540,46051,53.1544,0.0001239,15.29550321,476.3062096444446,478.00495114586556,1 46051U 20055AA  26066.52846774  .00068244  00000+0  23416-2 0  9992,2 46051  53.1544 123.8811 0001239 105.2265 254.8872 15.29550321308752
STARLINK-1541,46052,53.1581,0.0001167,15.3016472,474.52061268413036,476.1202096438965,1 46052U 20055AB  26066.66668981  .00047886  00000+0  16203-2 0  9995,2 46052  53.1581 123.2827 0001167  73.2007  26.4139 15.30164720  5796
STARLINK-1543,46053,53.1599,0.0001141,15.29914063,475.286893828903,476.85102362868565,1 46053U 20055AC  26066.58960962  .00060076  00000+0  20421-2 0  9994,2 46053  53.1599 123.6644 0001141  83.7414 276.3716 15.29914063308757
STARLINK-1548,46054,53.1571,0.0001454,15.30074172,474.594262871934,476.5873269146887,1 46054U 20055AD  26066.53174278  .00098328  00000+0  33011-2 0  9997,2 46054  53.1571 123.9351 0001454  88.3529 271.7638 15.30074172308742
STARLINK-1554,46055,53.158,0.0001233,15.30161736,474.48428880959636,476.17435360440595,1 46055U 20055AE  26066.66668981  .00046645  00000+0  15790-2 0  9990,2 46055  53.1580 123.4346 0001233  79.0591 316.5417 15.30161736  5798
STARLINK-1564,46058,53.1574,0.0001108,15.30205502,474.43929189921346,475.9579910773682,1 46058U 20055AH  26066.59288120  .00016930  00000+0  58232-3 0  9991,2 46058  53.1574 124.1099 0001108  14.9651 345.1383 15.30205502308744
STARLINK-1570,46059,53.1612,0.000148,15.30203165,474.19132460844776,476.21991402376625,1 46059U 20055AJ  26066.55698553  .00003237  00000+0  12137-3 0  9993,2 46059  53.1612 123.8158 0001480  92.0616 268.0555 15.30203165308704
STARLINK-1572,46060,53.1547,0.0001424,15.29377041,476.697111044522,478.6496458403035,1 46060U 20055AK  26066.56988848  .00013005  00000+0  46192-3 0  9997,2 46060  53.1547 123.9214 0001424  86.8855 273.2309 15.29377041308710
STARLINK-1573,46061,53.1596,0.0001384,15.30214815,474.22233705229155,476.1193326609791,1 46061U 20055AL  26066.54118700  .00013193  00000+0  45655-3 0  9999,2 46061  53.1596 123.8422 0001384  85.4340 274.6819 15.30214815308749
STARLINK-1577,46063,53.1606,0.0001497,15.30212958,474.15043842714476,476.2023204529487,1 46063U 20055AN  26066.56750861  .00005413  00000+0  19468-3 0  9992,2 46063  53.1606 123.6901 0001497  68.9480 291.1681 15.30212958308746
STARLINK-1583,46064,53.1558,0.0001933,15.29358658,476.40307778603983,479.0535553174195,1 46064U 20055AP  26066.47253151  .00002992  00000+0  11598-3 0  9998,2 46064  53.1558 124.1679 0001933  59.2365 300.8825 15.29358658308723
STARLINK-1525,46066,53.0536,0.0002115,15.13140448,525.1694234067209,528.0901397553307,1 46066U 20055AR  26066.66668981  .01227910  00000+0  63466-1 0  9991,2 46066  53.0536 105.5696 0002115  77.3530  86.4190 15.13140448  5747
STARLINK-1536,46070,53.0542,0.0001364,15.0640157,546.2621292316062,548.151363005547,1 46070U 20055AV  26066.42795961  .00000274  00000+0  37316-4 0  9998,2 46070  53.0542 106.7776 0001364 108.9835 251.1302 15.06401570308970
STARLINK-1542,46073,53.055,0.0001363,15.06401829,546.262028077972,548.1498765667757,1 46073U 20055AY  26066.48692991  .00002270  00000+0  17121-3 0  9995,2 46073  53.0550 106.5070 0001363  97.4409 262.6735 15.06401829308979
STARLINK-1549,46074,53.0538,0.0001363,15.06405651,546.2503158435065,548.1381611391198,1 46074U 20055AZ  26066.53855312  .00007813  00000+0  54275-3 0  9999,2 46074  53.0538 106.2764 0001363  94.0955 266.0190 15.06405651308972
STARLINK-1551,46075,53.0546,0.0001283,15.06400387,546.3218497714624,548.0988939070767,1 46075U 20055BA  26066.43164402  .00001740  00000+0  13570-3 0  9998,2 46075  53.0546 106.7553 0001283  90.5755 269.5381 15.06400387308963
STARLINK-1552,46076,53.0539,0.0001303,15.06386298,546.3511745241003,548.1559313021899,1 46076U 20055BB  26066.39109780  .00000916  00000+0  80413-4 0  9997,2 46076  53.0539 106.9389 0001303  91.9920 268.1218 15.06386298308943
STARLINK-1559,46077,53.0248,0.0004198,15.2926435,475.13196536848045,480.88838653741004,1 46077U 20055BC  26066.33847027  .00044867  00000+0  15618-2 0  9991,2 46077  53.0248  84.8852 0004198  25.4940 334.6265 15.29264350309221
STARLINK-1566,46079,53.0535,0.0001329,15.06375741,546.3655205724908,548.2062979817774,1 46079U 20055BE  26066.47588444 -.00003392  00000+0 -20910-3 0  9995,2 46079  53.0535 106.5568 0001329  88.9820 271.1321 15.06375741308973
STARLINK-1568,46080,53.0617,0.000616,15.46306366,423.3499784243186,431.73457529340794,1 46080U 20055BF  26066.66668981  .00049689  00000+0  99353-3 0  9997,2 46080  53.0617  42.6273 0006160 111.1583 151.4595 15.46306366  5802
STARLINK-1578,46082,53.0557,0.0001431,15.06397296,546.2288267566619,548.2108638857926,1 46082U 20055BH  26066.42427609  .00000740  00000+0  68542-4 0  9995,2 46082  53.0557 106.7893 0001431  93.0558 267.0595 15.06397296308968
